{
  "type": "FeatureCollection",
  "features": [
    {
      "type": "Feature",
      "properties": {
        "norad_id": 33886,
        "name": "IRIDIUM 33 DEB",
        "group": "iridium-33-debris",
        "lat": 80.8671466624019,
        "lon": -137.55663536481555,
        "alt_km": 769.9346625140279,
        "timestamp": "2025-12-16T13:52:37.906952+00:00",
        "meta_object_name": "IRIDIUM 33 DEB",
        "meta_object_id": "1997-051BF",
        "meta_epoch": "2025-12-15T23:10:27.057216",
        "meta_mean_motion": 14.36055791,
        "meta_eccentricity": 0.00125362,
        "meta_inclination": 86.383,
        "meta_ra_of_asc_node": 65.8711,
        "meta_arg_of_pericenter": 229.9815,
        "meta_mean_anomaly": 303.3561,
        "meta_ephemeris_type": 0,
        "meta_classification_type": "U",
        "meta_norad_cat_id": 33886,
        "meta_element_set_no": 999,
        "meta_rev_at_epoch": 88098,
        "meta_bstar": 0.00018200983,
        "meta_mean_motion_dot": 5.49e-06,
        "meta_mean_motion_ddot": 0,
        "tle_line1": "1 33886U 97051BF  25349.96559094  .00000549  00000+0  18201-3 0  9992",
        "tle_line2": "2 33886  86.3830  65.8711 0012536 229.9815 303.3561 14.36055791880984"
      },
      "geometry": {
        "type": "Point",
        "coordinates": [
          -137.55663536481555,
          80.8671466624019
        ]
      }
    },
    {
      "type": "Feature",
      "properties": {
        "norad_id": 33887,
        "name": "IRIDIUM 33 DEB",
        "group": "iridium-33-debris",
        "lat": 50.63670064220537,
        "lon": 6.257165525217234,
        "alt_km": 766.294367221024,
        "timestamp": "2025-12-16T13:52:37.906963+00:00",
        "meta_object_name": "IRIDIUM 33 DEB",
        "meta_object_id": "1997-051BG",
        "meta_epoch": "2025-12-15T19:49:33.280896",
        "meta_mean_motion": 14.37223673,
        "meta_eccentricity": 0.00047292,
        "meta_inclination": 86.3043,
        "meta_ra_of_asc_node": 2.0622,
        "meta_arg_of_pericenter": 213.483,
        "meta_mean_anomaly": 268.2905,
        "meta_ephemeris_type": 0,
        "meta_classification_type": "U",
        "meta_norad_cat_id": 33887,
        "meta_element_set_no": 999,
        "meta_rev_at_epoch": 88209,
        "meta_bstar": 0.0001410094,
        "meta_mean_motion_dot": 4.39e-06,
        "meta_mean_motion_ddot": 0,
        "tle_line1": "1 33887U 97051BG  25349.82607964  .00000439  00000+0  14101-3 0  9991",
        "tle_line2": "2 33887  86.3043   2.0622 0004729 213.4830 268.2905 14.37223673882097"
      },
      "geometry": {
        "type": "Point",
        "coordinates": [
          6.257165525217234,
          50.63670064220537
        ]
      }
    },
    {
      "type": "Feature",
      "properties": {
        "norad_id": 33953,
        "name": "IRIDIUM 33 DEB",
        "group": "iridium-33-debris",
        "lat": 23.190302047069466,
        "lon": -129.43838847441276,
        "alt_km": 702.5169156807988,
        "timestamp": "2025-12-16T13:52:37.906974+00:00",
        "meta_object_name": "IRIDIUM 33 DEB",
        "meta_object_id": "1997-051BN",
        "meta_epoch": "2025-12-15T10:48:32.661792",
        "meta_mean_motion": 14.55354626,
        "meta_eccentricity": 0.0018265,
        "meta_inclination": 86.3848,
        "meta_ra_of_asc_node": 52.603,
        "meta_arg_of_pericenter": 94.655,
        "meta_mean_anomaly": 276.5427,
        "meta_ephemeris_type": 0,
        "meta_classification_type": "U",
        "meta_norad_cat_id": 33953,
        "meta_element_set_no": 999,
        "meta_rev_at_epoch": 88343,
        "meta_bstar": 0.00078160198,
        "meta_mean_motion_dot": 3.418e-05,
        "meta_mean_motion_ddot": 0,
        "tle_line1": "1 33953U 97051BN  25349.45037803  .00003418  00000+0  78160-3 0  9998",
        "tle_line2": "2 33953  86.3848  52.6030 0018265  94.6550 276.5427 14.55354626883439"
      },
      "geometry": {
        "type": "Point",
        "coordinates": [
          -129.43838847441276,
          23.190302047069466
        ]
      }
    },
    {
      "type": "Feature",
      "properties": {
        "norad_id": 33960,
        "name": "IRIDIUM 33 DEB",
        "group": "iridium-33-debris",
        "lat": 13.876807976206143,
        "lon": -71.36813445806241,
        "alt_km": 609.5768789190042,
        "timestamp": "2025-12-16T13:52:37.906984+00:00",
        "meta_object_name": "IRIDIUM 33 DEB",
        "meta_object_id": "1997-051BV",
        "meta_epoch": "2025-12-15T20:16:06.180672",
        "meta_mean_motion": 14.85357541,
        "meta_eccentricity": 0.00074313,
        "meta_inclination": 86.2529,
        "meta_ra_of_asc_node": 288.0502,
        "meta_arg_of_pericenter": 57.1848,
        "meta_mean_anomaly": 356.1454,
        "meta_ephemeris_type": 0,
        "meta_classification_type": "U",
        "meta_norad_cat_id": 33960,
        "meta_element_set_no": 999,
        "meta_rev_at_epoch": 88913,
        "meta_bstar": 0.0020732514,
        "meta_mean_motion_dot": 0.00017892,
        "meta_mean_motion_ddot": 0,
        "tle_line1": "1 33960U 97051BV  25349.84451598  .00017892  00000+0  20733-2 0  9993",
        "tle_line2": "2 33960  86.2529 288.0502 0007431  57.1848 356.1454 14.85357541889138"
      },
      "geometry": {
        "type": "Point",
        "coordinates": [
          -71.36813445806241,
          13.876807976206143
        ]
      }
    },
    {
      "type": "Feature",
      "properties": {
        "norad_id": 33966,
        "name": "IRIDIUM 33 DEB",
        "group": "iridium-33-debris",
        "lat": -23.340419399164936,
        "lon": -134.059805561478,
        "alt_km": 727.5648443720138,
        "timestamp": "2025-12-16T13:52:37.906995+00:00",
        "meta_object_name": "IRIDIUM 33 DEB",
        "meta_object_id": "1997-051CB",
        "meta_epoch": "2025-12-15T22:51:09.786240",
        "meta_mean_motion": 14.49607788,
        "meta_eccentricity": 0.00078112,
        "meta_inclination": 86.3927,
        "meta_ra_of_asc_node": 44.6489,
        "meta_arg_of_pericenter": 177.5484,
        "meta_mean_anomaly": 0.8363,
        "meta_ephemeris_type": 0,
        "meta_classification_type": "U",
        "meta_norad_cat_id": 33966,
        "meta_element_set_no": 999,
        "meta_rev_at_epoch": 88488,
        "meta_bstar": 0.00039929848,
        "meta_mean_motion_dot": 1.553e-05,
        "meta_mean_motion_ddot": 0,
        "tle_line1": "1 33966U 97051CB  25349.95219660  .00001553  00000+0  39930-3 0  9990",
        "tle_line2": "2 33966  86.3927  44.6489 0007811 177.5484   0.8363 14.49607788884882"
      },
      "geometry": {
        "type": "Point",
        "coordinates": [
          -134.059805561478,
          -23.340419399164936
        ]
      }
    },
    {
      "type": "Feature",
      "properties": {
        "norad_id": 34071,
        "name": "IRIDIUM 33 DEB",
        "group": "iridium-33-debris",
        "lat": -85.76836408338036,
        "lon": -104.10140434179756,
        "alt_km": 741.8210143462984,
        "timestamp": "2025-12-16T13:52:37.907005+00:00",
        "meta_object_name": "IRIDIUM 33 DEB",
        "meta_object_id": "1997-051CE",
        "meta_epoch": "2025-12-15T20:04:38.262144",
        "meta_mean_motion": 14.49479192,
        "meta_eccentricity": 0.00100068,
        "meta_inclination": 86.3457,
        "meta_ra_of_asc_node": 16.4826,
        "meta_arg_of_pericenter": 99.5033,
        "meta_mean_anomaly": 260.7302,
        "meta_ephemeris_type": 0,
        "meta_classification_type": "U",
        "meta_norad_cat_id": 34071,
        "meta_element_set_no": 999,
        "meta_rev_at_epoch": 88379,
        "meta_bstar": 0.00045761963,
        "meta_mean_motion_dot": 1.773e-05,
        "meta_mean_motion_ddot": 0,
        "tle_line1": "1 34071U 97051CE  25349.83655396  .00001773  00000+0  45762-3 0  9999",
        "tle_line2": "2 34071  86.3457  16.4826 0010006  99.5033 260.7302 14.49479192883798"
      },
      "geometry": {
        "type": "Point",
        "coordinates": [
          -104.10140434179756,
          -85.76836408338036
        ]
      }
    },
    {
      "type": "Feature",
      "properties": {
        "norad_id": 34077,
        "name": "IRIDIUM 33 DEB",
        "group": "iridium-33-debris",
        "lat": -37.56169828498889,
        "lon": 47.03049715371448,
        "alt_km": 681.0098422656447,
        "timestamp": "2025-12-16T13:52:37.907016+00:00",
        "meta_object_name": "IRIDIUM 33 DEB",
        "meta_object_id": "1997-051CL",
        "meta_epoch": "2025-12-15T22:27:47.585088",
        "meta_mean_motion": 14.64874946,
        "meta_eccentricity": 0.00098438,
        "meta_inclination": 86.3861,
        "meta_ra_of_asc_node": 50.0992,
        "meta_arg_of_pericenter": 29.5748,
        "meta_mean_anomaly": 148.2432,
        "meta_ephemeris_type": 0,
        "meta_classification_type": "U",
        "meta_norad_cat_id": 34077,
        "meta_element_set_no": 999,
        "meta_rev_at_epoch": 88379,
        "meta_bstar": 0.00070458138,
        "meta_mean_motion_dot": 3.788e-05,
        "meta_mean_motion_ddot": 0,
        "tle_line1": "1 34077U 97051CL  25349.93596742  .00003788  00000+0  70458-3 0  9993",
        "tle_line2": "2 34077  86.3861  50.0992 0009843  29.5748 148.2432 14.64874946883791"
      },
      "geometry": {
        "type": "Point",
        "coordinates": [
          47.03049715371448,
          -37.56169828498889
        ]
      }
    }
  ]
}